[{"OBJECT_NAME":"GEOSCAN 6 (RS92S6)","OBJECT_ID":"2025-155D","EPOCH":"2026-03-09T21:52:39.201312","MEAN_MOTION":15.27985277,"ECCENTRICITY":0.00087677,"INCLINATION":97.4466,"RA_OF_ASC_NODE":37.2933,"ARG_OF_PERICENTER":153.7679,"MEAN_ANOMALY":206.4006,"EPHEMERIS_TYPE":0,"CLASSIFICATION_TYPE":"U","NORAD_CAT_ID":64879,"ELEMENT_SET_NO":999,"REV_AT_EPOCH":6559,"BSTAR":0.00053762354,"MEAN_MOTION_DOT":0.00014633,"MEAN_MOTION_DDOT":0},{"OBJECT_NAME":"STARLINK-35665","OBJECT_ID":"2025-257L","EPOCH":"2026-03-09T16:20:46.881888","MEAN_MOTION":15.3020338,"ECCENTRICITY":0.00013949,"INCLINATION":53.159,"RA_OF_ASC_NODE":216.9444,"ARG_OF_PERICENTER":66.0867,"MEAN_ANOMALY":294.028,"EPHEMERIS_TYPE":0,"CLASSIFICATION_TYPE":"U","NORAD_CAT_ID":66390,"ELEMENT_SET_NO":999,"REV_AT_EPOCH":1983,"BSTAR":0.00074799098,"MEAN_MOTION_DOT":0.00021862,"MEAN_MOTION_DDOT":0}]
